{
  "type": "FeatureCollection",
  "features": [
    {
      "type": "Feature",
      "properties": {},
      "geometry": {
        "type": "Polygon",
        "coordinates": [
          [
            [
              -73.9333414,
              40.7140647
            ],
            [
              -73.9290837,
              40.7048096
            ],
            [
              -73.9610787,
              40.6990186
            ],
            [
              -73.9661503,
              40.7033856
            ],
            [
              -73.96878,
              40.7078473
            ],
            [
              -73.9690931,
              40.7117392
            ],
            [
              -73.9669643,
              40.7168647
            ],
            [
              -73.9590125,
              40.7239828
            ],
            [
              -73.9567584,
              40.7256911
            ],
            [
              -73.9575724,
              40.7283957
            ],
            [
              -73.9600482,
              40.7358317
            ],
            [
              -73.9548773,
              40.7389852
            ],
            [
              -73.9427698,
              40.734876
            ],
            [
              -73.9334369,
              40.7266569
            ],
            [
              -73.9248608,
              40.715569
            ],
            [
              -73.9278877,
              40.7148043
            ],
            [
              -73.9333414,
              40.7140647
            ]
          ]
        ]
      }
    }
  ]
}